#dP2022 11 20  0  0  0.00000000      96 __u+U ITR00 EXT  IAC
## 2237      0.00000000   900.00000000 59903 0.0000000000000
+  118   C06C07C08C09C10C11C12C13C14C16C19C20C21C22C23C24C25
+        C26C27C28C29C30C32C33C34C35C36C37C38C39C40C41C42C43
+        C44C45C46E01E02E03E04E05E07E08E09E10E11E12E13E14E15
+        E18E19E21E24E25E26E27E30E31E33E34E36G01G02G03G04G05
+        G06G07G08G09G10G11G12G13G14G15G16G17G18G19G20G21G22
+        G23G24G25G26G27G29G30G31G32J02J03J04R01R02R03R04R05
+        R07R08R09R11R12R13R14R15R17R18R19R20R21R22R24R25  0
++         8 10  8 10  8  9  9  8  9  9  7  7 10  7  9  7  9
++         8  9  9  8  9  9  8  8  7  6  9 10  7 11  7  7 10
++         9  7  9  7  8  8  8  8  7  7  7  8  9  9  7  6  7
++         7  8  7  6  8  7  7  9  7  7  7  6  7  7  7  7  6
++         9  7  8  6  7  8  7  7  6  6  6  8  7  8  7  7  8
++         8  7  7  8  6  7  6  7  8  8  9  9  9  5  9  9  9
++         8  9 10  8  9  8  8  8  7  9  8  9  8  7  8  8  0
%c M  cc GPS ccc cccc cccc cccc cccc ccccc ccccc ccccc ccccc
%c cc cc ccc ccc cccc cccc cccc cccc ccccc ccccc ccccc ccccc
%f  0.0000000  0.000000000  0.00000000000  0.000000000000000
%f  0.0000000  0.000000000  0.00000000000  0.000000000000000
%i    0    0    0    0      0      0      0      0         0
%i    0    0    0    0      0      0      0      0         0
/* IAC                                ULTRA-RAPID PREDICTION
/* S/V CLOCKS ARE ALIGNED TO GNSS TIME                      
/* G:C1WC2W R:C1PC2P E:C1XC5X C:C2IC6I J:C1CC2S             
/* PCV:IGS14_2233 OL/AL:FES2004  NONE     YN ORB:CoN CLK:CoN
*  2022 11 20  3 30  0.00000000
PC06   -608.006521  35521.974384  22894.772848     -2.961038
PC07 -13109.654546  26333.957331 -30204.299096    189.656978
PC08 -17058.990081  37496.374050   8517.713113    514.063175
PC09   5080.828138  39107.474397  15990.346758   -802.789778
PC10  -4680.875406  27028.434958 -31780.504683     65.412922
PC11  11337.256872  24721.137425  -6100.613062   -282.341417
PC12  -3125.437641  19119.086929 -20033.875289    309.261353
PC13  -9784.549291  37513.472944  16346.256020    137.761039
PC14   8386.627164  14610.723618  22249.170711    668.222042
PC16  -4524.276910  32386.672189  26952.391432    114.390741
PC19 -18357.762215 -10750.186946 -18049.561474   -912.152532
PC20    757.589498 -15832.359758 -22961.690750    832.045219
PC21 -20890.652768  11697.483458  14354.777762   -859.945398
PC22 -27795.505344    716.534804  -2498.117322   -784.172034
PC23  17986.146015  -2390.612540 -21203.048815   -876.218030
PC24  -6535.137975  26133.471478  -7233.611799   -783.535378
PC25   9392.859443  15906.506646 -20918.878913     27.295737
PC26 -16074.758906  21081.877160   8635.632550    -38.380337
PC27  10476.125586 -12508.968208  22622.001438     54.029195
PC28  19661.848813   5394.411041  19058.847143     37.993594
PC29 -18320.025741 -20767.669312  -3448.511960     42.873187
PC30  -5140.434968 -23513.409051  14103.871291      1.026167
PC32  20870.122780 -11815.481590 -14258.791057   -711.704789
PC33  18304.630097  10729.985454  18118.671784   -908.408465
PC34   6097.438150  23851.806790 -13164.624929     43.190403
PC35 -20282.177602  -6218.037610 -18120.191255     96.235939
PC36  -8563.048228 -16698.344169  20678.525206   -827.899049
PC37  17041.987622 -19818.948990  -9805.279695   -896.865322
PC38 -20485.850765  36735.979147    675.821761     39.364074
PC39  -6404.062726  29368.631245  29664.972141     -0.882866
PC40 -19721.323967  19575.883446 -31780.200467     -8.454033
PC41  27737.146850   -405.382038   3106.681167   -294.228663
PC42  -2189.756254  15955.855948  22826.503917   -696.750329
PC43  17935.452221  21223.235743   2682.367537     25.913191
PC44 -10270.781398  12817.441866 -22570.860216    119.431218
PC45 -17965.446758   2806.976538  21159.520875    -24.574537
PC46   5264.827115 -25952.353257   8874.133632    -14.152528
PE01   7966.523786 -21125.516324  19152.388723   -568.922519
PE02  -7699.541526  21068.191989 -19301.101060      3.664769
PE03   4464.821032  19322.416736  21961.557746   -621.717516
PE04 -22238.418590 -17495.047786  -8688.795273  -1162.341606
PE05 -16348.843544   9830.013009  22627.096009   -122.943765
PE07  27318.878591   5228.765651 -10121.284013     -0.677677
PE08  22301.468381  17388.836225   8723.604801   -635.238009
PE09 -27350.483891  -5391.311632   9961.867541   -735.342702
PE10 -15051.670517 -13561.191146 -21587.135699   -492.054213
PE11 -16192.758601  -1414.039676 -24742.281684   1245.640260
PE12 -11675.952256 -22496.539315 -15279.356298   -286.442287
PE13  16142.593401   2458.420098  24696.489140    430.569346
PE14 -26565.774400   1057.976532 -18680.504300     61.625743
PE15  11558.933316  22693.055819  15093.314004    706.296654
PE18  18021.311001  -2595.093723  14799.926078   -722.787826
PE19  -1552.031212 -18554.761941 -23010.993295  -3951.505984
PE21  22520.650918 -18750.446875   4214.227281   -495.648769
PE24 -25123.244575   4539.119731  14945.962687   -957.048215
PE25 -22680.469925  18603.683310  -3904.908694   -593.079586
PE26  10990.179221 -19767.534572  19109.036205  -1865.420769
PE27  25381.762718  -5480.206628 -14219.537374   -443.780154
PE30  12577.981257  11539.796623 -24190.136362  -1012.612870
PE31 -13258.901882 -10910.556527  24119.639237   -508.612671
PE33   -167.986443 -29407.687390   3376.547037   -455.545076
PE34    336.985286  29417.044089  -3194.660659    -15.493590
PE36 -11216.223766  19005.169951 -19720.215446   -463.419937
PG01  13071.223828 -11672.452944  19535.633063    249.236142
PG02 -11113.022528  15687.522411 -17783.523539   -637.039196
PG03  23487.756894 -12147.123213   1663.833453   -373.549911
PG04  18046.269119  -4339.697553 -19036.796305    -83.340201
PG05 -22607.589242   2854.600109 -13914.897817   -104.968714
PG06  -6472.061026 -23572.493290 -10220.680647    522.354326
PG07   6443.519067 -23799.517944  -8773.032147    285.239888
PG08  23856.235692   4125.286869  11297.418148    -94.654564
PG09   7343.439061 -13521.200487 -21730.412314   -266.051028
PG10   -671.354605  16614.103849  20793.065725    -12.627146
PG11 -12273.251104 -14165.900407 -18826.254685    -42.568156
PG12 -24360.024031  10177.537972   2063.045093   -306.321352
PG13 -22681.173612 -12661.231327   5823.380507    427.723697
PG14   3492.351506 -17610.543241  19543.864955    -80.579379
PG15 -24178.392908  -1333.734776  10781.903808    -10.943496
PG16  20483.378107   3534.100868 -17080.199110   -526.855630
PG17  -5873.887520 -18771.081452  18255.019127    679.397624
PG18  -5548.484821  24846.467004  -7308.300487    -28.477124
PG19 -15971.109648 -19298.869811   8981.181790    239.703057
PG20 -14694.487446  -7383.693637 -20797.891102    468.907764
PG21  15380.288348  -1819.496667  22165.343282    155.679157
PG22  17736.247291  18651.497242   7342.647045    368.138634
PG23 -11846.667175  18803.909037  14431.920485     -0.904849
PG24 -14583.058172   7524.627110  20475.696672     51.560067
PG25 -18814.674639  17109.605077  -7434.606233    394.313118
PG26  11773.118702  10986.011449 -21248.024945    236.298095
PG27  23399.086574  12996.713231    703.773707    173.902767
PG29  -9951.790931  11127.279747 -22012.889251   -568.425882
PG30  -1314.471749 -26289.478030   2372.913744   -536.521790
PG31   7627.250578  22458.365225 -11621.269619   -200.739115
PG32  10062.010059  18788.739647  16124.153348   -302.055456
PJ02 -35514.195563  21987.219015  -1369.816483     -0.158878
PJ03 -19503.215689  24745.671025 -23408.574136     -4.978922
PJ04 -28608.549620  29518.788137  15811.084639    113.338343
PR01 -13474.681361 -10172.134382 -19129.177800     18.174772
PR02 -24972.929153  -4023.861306  -2949.975117    -23.349446
PR03 -20869.830022   4593.319846  13916.706663     67.604229
PR04  -5331.118715  10153.492181  22803.803714    165.569805
PR05  13143.478491  10417.006852  19235.833817    103.210113
PR07  20482.540079  -4844.657659 -14419.449535     44.625103
PR08   5200.885497 -10285.537789 -22708.553530    -68.168449
PR09  13870.478232  -1682.328555 -21307.084860     88.550282
PR11  11095.715794 -21877.151706   6983.609259     19.721683
PR12  -2187.275526 -14341.687315  21010.519004     23.014056
PR13 -12947.306459    241.115029  21960.455412    -29.077887
PR14 -17065.144454  16454.328396   9447.905994     24.106141
PR15 -10718.750386  21741.115031  -7925.175057     92.768112
PR17  -8520.922802   6649.736888 -23087.921560    579.692144
PR18   1285.009030  20259.105163 -15454.764591     52.861918
PR19   9116.273763  23793.442461  -1079.946744   -211.599750
PR20  13497.114704  12462.761153  17727.801241    -82.475574
PR21   7632.277867  -8259.588881  22904.341416   -351.086047
PR22   -667.634498 -20769.296476  14817.948808     16.305911
PR24 -14135.446226 -11324.192687 -17949.035140    127.604300
PR25   9304.728632  -5963.502823  22999.676044     46.777790
EOF
